satname,norad_id,inclination_deg,eccentricity,mean_motion_rev_per_day,perigee_km,apogee_km,l1,l2
STARLINK-1402,45685,53.0462,0.0004013,15.48903126,417.2055332177033,422.6616646804205,1 45685U 20035AE  26093.78888288  .00152291  00000+0  27311-2 0  9990,2 45685  53.0462 263.5251 0004013 305.1062  54.9568 15.48903126323238
STARLINK-1404,45686,53.1603,0.0001153,15.37367645,453.1092321555052,454.6846991879893,1 45686U 20035AF  26093.86360669  .00037293  00000+0  10090-2 0  9998,2 45686  53.1603 292.2969 0001153 117.6411 242.4710 15.37367645322834
STARLINK-1413,45689,53.1576,0.000132,15.30221078,474.2475008672509,476.056769198899,1 45689U 20035AJ  26093.78305949  .00013912  00000+0  48064-3 0  9997,2 45689  53.1576 293.0230 0001320  91.7458 268.3694 15.30221078322734
STARLINK-1417,45693,53.0497,0.0002155,15.13730405,523.3480449273084,526.3232261332223,1 45693U 20035AN  26093.76229385  .00028393  00000+0  15679-2 0  9993,2 45693  53.0497 300.5619 0002155 317.6933  42.3893 15.13730405322696
STARLINK-1420,45695,53.0502,0.0004021,15.58745838,388.5637671424265,394.0077369196106,1 45695U 20035AQ  26093.72622004  .00142444  00000+0  17889-2 0  9995,2 45695  53.0502 261.1793 0004021 244.9680 115.0914 15.58745838323255
STARLINK-1422,45696,53.1576,0.0001107,15.30219805,474.39727636898715,475.91459542499433,1 45696U 20035AR  26093.79041369  .00008122  00000+0  28586-3 0  9993,2 45696  53.1576 292.9924 0001107  93.9862 266.1265 15.30219805322810
STARLINK-1351,45697,53.049,0.0004475,15.57276669,392.51147589166067,398.57391922097395,1 45697U 20035AS  26093.83335647  .00217698  00000+0  28582-2 0  9999,2 45697  53.0490 260.1188 0004475 262.6124 343.5773 15.57276669  5891
STARLINK-1400,45700,53.0479,0.0005748,15.55220773,397.6140037864998,405.4078870645617,1 45700U 20035AV  26093.83335647  .00211244  00000+0  29947-2 0  9991,2 45700  53.0479 261.8105 0005748 201.5795  38.1534 15.55220773  5941
STARLINK-1403,45701,53.1566,0.0001604,15.2939363,476.52413866419647,478.7234667297007,1 45701U 20035AW  26093.75931999  .00003085  00000+0  11907-3 0  9995,2 45701  53.1566 280.2140 0001604  77.5044 282.6136 15.29393630322983
STARLINK-1407,45703,53.0317,0.0003969,15.65224366,369.9141982089732,375.27292813001714,1 45703U 20035AY  26093.51243599  .00078933  00000+0  77962-3 0  9990,2 45703  53.0317 194.3096 0003969 210.0644 150.0143 15.65224366324177
STARLINK-1411,45706,53.0415,0.0003935,15.68040082,361.8564255166484,367.1628884356887,1 45706U 20035BB  26093.83335647  .00208365  00000+0  18007-2 0  9992,2 45706  53.0415 218.0597 0003935 304.2416 277.9212 15.68040082  5823
STARLINK-1423,45710,53.0472,0.0006211,15.57714043,390.0683535352464,398.4810433470511,1 45710U 20035BF  26093.83335647  .00220431  00000+0  28453-2 0  9991,2 45710  53.0472 260.4148 0006211 227.4726  54.7954 15.57714043  5663
STARLINK-1433,45711,53.0469,0.0005858,15.59987981,383.72840977201304,391.6552548319387,1 45711U 20035BG  26093.83335647  .00214040  00000+0  25378-2 0  9994,2 45711  53.0469 259.0803 0005858 221.3690 109.5721 15.59987981  5915
STARLINK-1434,45712,53.0506,0.0003304,15.29117128,476.1848215255577,480.71565437239406,1 45712U 20035BH  26093.75266560  .00083749  00000+0  29027-2 0  9998,2 45712  53.0506 263.7440 0003304 192.1148 167.9772 15.29117128323220
STARLINK-1465,45731,53.0483,0.0006229,15.537926,401.4390346685641,409.8902947824781,1 45731U 20038B   26093.30983030  .00090178  00000+0  13715-2 0  9992,2 45731  53.0483 104.6809 0006229  20.4305 339.6953 15.53792600320209
STARLINK-1471,45735,53.0481,0.0001669,15.50335914,414.6106316810383,416.8784293359222,1 45735U 20038F   26093.09081795  .00050142  00000+0  87164-3 0  9996,2 45735  53.0481  25.0012 0001669  40.4499 319.6633 15.50335914321316
STARLINK-1480,45741,53.0511,0.0002484,15.55959959,397.6800506573054,401.0471129463458,1 45741U 20038M   26093.72268590  .00114290  00000+0  15999-2 0  9994,2 45741  53.0511  96.8485 0002484  83.6159 276.5135 15.55959959320363
STARLINK-1500,45744,53.0366,0.0003277,15.36223907,455.04759982035193,459.52753708251475,1 45744U 20038Q   26093.67195101  .00041299  00000+0  11573-2 0  9990,2 45744  53.0366  75.4389 0003277  21.6606 338.4533 15.36223907320658
STARLINK-1504,45746,53.0239,0.0001083,15.55025219,401.34502441261975,402.81361926793033,1 45746U 20038S   26093.76835377  .00052821  00000+0  77505-3 0  9999,2 45746  53.0239  21.0381 0001083  79.2810 280.8322 15.55025219321415
STARLINK-1506,45747,53.073,0.0003236,15.26837523,483.052240620058,487.494239727499,1 45747U 20038T   26093.67092346  .00036067  00000+0  13560-2 0  9995,2 45747  53.0730  86.7598 0003236 356.6309   3.4667 15.26837523320504
STARLINK-1464,45751,53.0499,0.0004013,15.46746387,423.52088720131815,428.9820894020295,1 45751U 20038X   26093.27412387  .00090236  00000+0  17616-2 0  9991,2 45751  53.0499  87.4995 0004013  30.1841 329.9396 15.46746387320457
STARLINK-1477,45754,53.049,0.0003242,15.15551381,517.0689712885778,521.5412727604989,1 45754U 20038AA  26093.30518450  .00026089  00000+0  13704-2 0  9995,2 45754  53.0490 100.9630 0003242  49.6331 310.4944 15.15551381320267
STARLINK-1478,45755,53.049,0.0004148,15.59497503,386.30331889809986,391.91742731883096,1 45755U 20038AB  26093.66189661  .00072868  00000+0  90023-3 0  9999,2 45755  53.0490  76.7364 0004148  25.5080 334.6136 15.59497503320626
STARLINK-1493,45759,53.0503,0.0005093,15.54522583,400.0868683401104,406.9946853235915,1 45759U 20038AF  26093.81679858  .00126882  00000+0  18681-2 0  9997,2 45759  53.0503  83.5121 0005093  82.9190 277.2398 15.54522583320546
STARLINK-1494,45760,53.0481,0.0005898,15.79892689,326.78751109315635,334.7013076036237,1 45760U 20038AG  26093.83335647  .00134686  00000+0  70558-3 0  9999,2 45760  53.0481  26.1027 0005898 105.6245 126.6160 15.79892689  6019
STARLINK-1502,45764,53.0495,0.0006217,15.50947871,409.7346615085835,418.17995156933375,1 45764U 20038AL  26093.26865844  .00096924  00000+0  16308-2 0  9991,2 45764  53.0495  88.2785 0006217  72.6487 287.5201 15.50947871320447
STARLINK-1470,45772,53.0453,0.0003327,15.30116029,473.1856095028952,477.7459968081139,1 45772U 20038AU  26093.18598350  .00060468  00000+0  20421-2 0  9991,2 45772  53.0453  60.4379 0003327  82.7416 277.3961 15.30116029320827
STARLINK-1482,45773,53.1585,0.0002972,15.32161417,467.32980279963976,471.3999579173251,1 45773U 20038AV  26093.48785374  .00046438  00000+0  14774-2 0  9994,2 45773  53.1585  75.6946 0002972  88.0255 272.1087 15.32161417320643
STARLINK-1496,45780,53.0497,9.68e-05,15.52392144,409.0868883908115,410.4010221437502,1 45780U 20038BC  26093.20492399  .00106937  00000+0  17069-2 0  9995,2 45780  53.0497  60.1483 0000968   4.0600 356.0417 15.52392144320815
STARLINK-1513,45786,53.1604,0.0001527,15.30199809,474.1691327628705,476.2621466590381,1 45786U 20038BJ  26093.64074497  .00003527  00000+0  13116-3 0  9995,2 45786  53.1604  75.2584 0001527 111.1562 248.9602 15.30199809320667
STARLINK-1522,46027,53.0659,0.0002603,15.10271569,533.5715258645841,537.170698187705,1 46027U 20055A   26093.17768312  .00032487  00000+0  19709-2 0  9997,2 46027  53.0659  16.0269 0002603 117.2886 242.8371 15.10271569312580
STARLINK-1523,46028,53.1606,0.0001582,15.30195796,474.14341955111286,476.3118241174607,1 46028U 20055B   26093.79908535 -.00000509  00000+0 -50613-5 0  9993,2 46028  53.1606  10.0759 0001582 101.2169 258.9010 15.30195796312749
STARLINK-1526,46029,53.1562,0.0002231,15.29370296,476.1640001430451,479.2230717281791,1 46029U 20055C   26093.79138844 -.00002219  00000+0 -64522-4 0  9995,2 46029  53.1562  10.1082 0002231 111.3852 248.7386 15.29370296312734
STARLINK-1555,46032,53.1584,0.000111,15.30210021,474.42442992440556,475.9458674414127,1 46032U 20055F   26093.05849878  .00009317  00000+0  32621-3 0  9992,2 46032  53.1584  13.5042 0001110  72.1033 288.0089 15.30210021312621
STARLINK-1556,46033,53.1574,0.0001496,15.2935789,476.7049739704262,478.7562495598668,1 46033U 20055G   26093.16631832  .00016704  00000+0  58986-3 0  9994,2 46033  53.1574  12.9612 0001496  90.6808 269.4364 15.29357890312611
STARLINK-1557,46034,53.1553,0.0001492,15.29385464,476.6253232863537,478.671089591955,1 46034U 20055H   26093.74822336  .00010441  00000+0  37329-3 0  9990,2 46034  53.1553  10.1648 0001492  69.9970 290.1191 15.29385464312700
STARLINK-1558,46035,53.1612,0.0001195,15.30205407,474.37995149642575,476.01789878253567,1 46035U 20055J   26093.77063993 -.00000541  00000+0 -61388-5 0  9996,2 46035  53.1612  10.2112 0001195  88.6514 271.4624 15.30205407312732
STARLINK-1560,46036,53.1562,0.000154,15.29359685,476.669444518413,478.78105009058345,1 46036U 20055K   26093.48360318  .00003569  00000+0  13593-3 0  9990,2 46036  53.1562  11.4319 0001540  89.1309 270.9868 15.29359685312696
STARLINK-1567,46038,53.0894,0.0001517,15.66260539,368.5922651428027,370.63953337243765,1 46038U 20055M   26093.67122347  .01234376  00000+0  10514-1 0  9992,2 46038  53.0894   8.0252 0001517 150.4410 209.6691 15.66260539312741
STARLINK-1569,46039,53.1606,8.09e-05,15.30218708,474.6047796090652,475.7136429360489,1 46039U 20055N   26093.77380460  .00019631  00000+0  67278-3 0  9991,2 46039  53.1606  10.1903 0000809  52.7000 307.4074 15.30218708312725
STARLINK-1582,46043,53.1609,0.000119,15.30199144,474.4020760818121,476.0331744826299,1 46043U 20055S   26093.78012161  .00003087  00000+0  11631-3 0  9997,2 46043  53.1609  10.1486 0001190  76.7042 283.4091 15.30199144312729
STARLINK-1591,46045,53.1627,0.0001673,15.3020084,474.0659959502718,476.3591267134925,1 46045U 20055U   26093.15331247  .00006107  00000+0  21815-3 0  9990,2 46045  53.1627  13.0777 0001673  93.5305 266.5888 15.30200840312611
STARLINK-1524,46047,53.162,0.0001301,15.30214819,474.27920756578715,476.0624382613096,1 46047U 20055W   26093.86593380  .00009130  00000+0  31986-3 0  9997,2 46047  53.1620 356.8977 0001301 102.1416 257.9731 15.30214819312920
